CCSDS_OMM_VERS = 2.0
CREATION_DATE  = 
ORIGINATOR     = 

OBJECT_NAME    = GSLV R/B
OBJECT_ID      = 2022-138AN
CENTER_NAME    = EARTH
REF_FRAME      = TEME
TIME_SYSTEM    = UTC
MEAN_ELEMENT_THEORY = SGP/SGP4

EPOCH          = 2026-03-03T20:05:54.170592
MEAN_MOTION    = 14.96724659
ECCENTRICITY   = .00221343
INCLINATION    = 87.3886
RA_OF_ASC_NODE = 168.3206
ARG_OF_PERICENTER = 166.9922
MEAN_ANOMALY   = 193.1886

EPHEMERIS_TYPE = 0
CLASSIFICATION_TYPE = U
NORAD_CAT_ID   = 54149
ELEMENT_SET_NO = 999
REV_AT_EPOCH   = 18305
BSTAR          = .46472958E-3
MEAN_MOTION_DOT = .5361E-4
MEAN_MOTION_DDOT = 0

CCSDS_OMM_VERS = 2.0
CREATION_DATE  = 
ORIGINATOR     = 

OBJECT_NAME    = XRISM
OBJECT_ID      = 2023-137A
CENTER_NAME    = EARTH
REF_FRAME      = TEME
TIME_SYSTEM    = UTC
MEAN_ELEMENT_THEORY = SGP/SGP4

EPOCH          = 2026-03-03T23:04:13.974240
MEAN_MOTION    = 15.11421300
ECCENTRICITY   = .00081613
INCLINATION    = 31.0031
RA_OF_ASC_NODE = 320.7132
ARG_OF_PERICENTER = 340.5941
MEAN_ANOMALY   = 19.4386

EPHEMERIS_TYPE = 0
CLASSIFICATION_TYPE = U
NORAD_CAT_ID   = 57800
ELEMENT_SET_NO = 999
REV_AT_EPOCH   = 13692
BSTAR          = .47223235E-3
MEAN_MOTION_DOT = .8283E-4
MEAN_MOTION_DDOT = 0

CCSDS_OMM_VERS = 2.0
CREATION_DATE  = 
ORIGINATOR     = 

OBJECT_NAME    = ACS3
OBJECT_ID      = 2024-077B
CENTER_NAME    = EARTH
REF_FRAME      = TEME
TIME_SYSTEM    = UTC
MEAN_ELEMENT_THEORY = SGP/SGP4

EPOCH          = 2026-03-03T19:25:00.631776
MEAN_MOTION    = 13.89316216
ECCENTRICITY   = .00553577
INCLINATION    = 97.2109
RA_OF_ASC_NODE = 5.2431
ARG_OF_PERICENTER = 92.4851
MEAN_ANOMALY   = 268.2652

EPHEMERIS_TYPE = 0
CLASSIFICATION_TYPE = U
NORAD_CAT_ID   = 59588
ELEMENT_SET_NO = 999
REV_AT_EPOCH   = 9338
BSTAR          = .2391742E-1
MEAN_MOTION_DOT = .29576E-3
MEAN_MOTION_DDOT = 0

CCSDS_OMM_VERS = 2.0
CREATION_DATE  = 
ORIGINATOR     = 

OBJECT_NAME    = SZ-21 MODULE
OBJECT_ID      = 2025-246C
CENTER_NAME    = EARTH
REF_FRAME      = TEME
TIME_SYSTEM    = UTC
MEAN_ELEMENT_THEORY = SGP/SGP4

EPOCH          = 2026-03-03T18:27:35.995968
MEAN_MOTION    = 15.68011820
ECCENTRICITY   = .00014472
INCLINATION    = 41.4730
RA_OF_ASC_NODE = 239.7930
ARG_OF_PERICENTER = 287.9355
MEAN_ANOMALY   = 72.1329

EPHEMERIS_TYPE = 0
CLASSIFICATION_TYPE = U
NORAD_CAT_ID   = 66515
ELEMENT_SET_NO = 999
REV_AT_EPOCH   = 1714
BSTAR          = .39281321E-3
MEAN_MOTION_DOT = .44751E-3
MEAN_MOTION_DDOT = 0

